METOP-C                 
1 43689U 18087A   26074.24123242  .00000099  00000+0  64932-4 0  9998
2 43689  98.6754 135.5196 0002186  92.2113 267.9315 14.21498852381487
GEO-KOMPSAT-2A          
1 43823U 18100A   26073.38001069 -.00000345  00000+0  00000+0 0  9996
2 43823   0.0358  31.7652 0001616  23.6441  21.6479  1.00271065 26678
METEOR-M2 2             
1 44387U 19038A   26074.25438356  .00000166  00000+0  91504-4 0  9997
2 44387  98.9092  60.1831 0000584 349.3933  10.7233 14.24336618347924
ARKTIKA-M 1             
1 47719U 21016A   26072.78872222 -.00000108  00000+0  00000+0 0  9991
2 47719  63.2042  71.2738 7248342 269.5023  15.1596  2.00619294 36876
FENGYUN 3E              
1 49008U 21062A   26074.26897910  .00000430  00000+0  22321-3 0  9992
2 49008  98.7519  78.7206 0002030  32.1955 327.9345 14.19895974243258
GOES 18                 
1 51850U 22021A   26074.01225098  .00000096  00000+0  00000+0 0  9995
2 51850   0.0356  39.0500 0000826  24.7142 336.2554  1.00272979  5648
NOAA 21 (JPSS-2)        
1 54234U 22150A   26074.21991199  .00000096  00000+0  66510-4 0  9994
2 54234  98.7559  14.4226 0002763  96.8823 263.2667 14.19553856173219
METEOSAT-12 (MTG-I1)    
1 54743U 22170C   26074.28151144 -.00000008  00000+0  00000+0 0  9997
2 54743   0.7124  23.0968 0001756 290.7971 319.9822  1.00271392 12036
TIANMU-1 03             
1 55973U 23039A   26074.25744947  .00018852  00000+0  40923-3 0  9991
2 55973  97.5177 244.7657 0003978  85.8128 274.3574 15.44419762166324
TIANMU-1 04             
1 55974U 23039B   26074.27940832  .00018658  00000+0  39930-3 0  9995
2 55974  97.5110 243.9469 0004578  80.8833 279.2933 15.44838739166332
TIANMU-1 05             
1 55975U 23039C   26074.29904830  .00018723  00000+0  40723-3 0  9991
2 55975  97.5158 244.4579 0003845 102.9536 257.2142 15.44362637166310
TIANMU-1 06             
1 55976U 23039D   26074.27911271  .00018086  00000+0  38682-3 0  9990
2 55976  97.5168 244.9827 0004164  98.2515 261.9206 15.44865979166334
FENGYUN 3G              
1 56232U 23055A   26074.29836530  .00030639  00000+0  50057-3 0  9998
2 56232  49.9925 110.1020 0005930 318.1896  41.8618 15.52220047165419
METEOR-M2 3             
1 57166U 23091A   26074.29808229  .00000003  00000+0  20072-4 0  9996
2 57166  98.6202 131.1499 0005097  86.5453 273.6309 14.24038213141154
TIANMU-1 07             
1 57399U 23101A   26074.27782928  .00008422  00000+0  29949-3 0  9995
2 57399  97.2720 127.1025 0004972 122.6502 237.5219 15.29221152147292
TIANMU-1 08             
1 57400U 23101B   26066.00237819  .00000346  00000+0  14775-4 0  9993
2 57400  97.2717 118.7901 0006380 134.2174 225.9592 15.29204229146020
TIANMU-1 09             
1 57401U 23101C   26074.29487944  .00008475  00000+0  30180-3 0  9998
2 57401  97.2667 126.3686 0005238 125.4581 234.7149 15.29172785147292
