[{"OBJECT_NAME":"METOP-C","OBJECT_ID":"2018-087A","EPOCH":"2026-03-15T05:47:22.481088","MEAN_MOTION":14.21498852,"ECCENTRICITY":0.00021866,"INCLINATION":98.6754,"RA_OF_ASC_NODE":135.5196,"ARG_OF_PERICENTER":92.2113,"MEAN_ANOMALY":267.9315,"EPHEMERIS_TYPE":0,"CLASSIFICATION_TYPE":"U","NORAD_CAT_ID":43689,"ELEMENT_SET_NO":999,"REV_AT_EPOCH":38148,"BSTAR":6.4931933e-5,"MEAN_MOTION_DOT":9.9e-7,"MEAN_MOTION_DDOT":0},{"OBJECT_NAME":"GEO-KOMPSAT-2A","OBJECT_ID":"2018-100A","EPOCH":"2026-03-14T09:07:12.923616","MEAN_MOTION":1.00271065,"ECCENTRICITY":0.0001616,"INCLINATION":0.0358,"RA_OF_ASC_NODE":31.7652,"ARG_OF_PERICENTER":23.6441,"MEAN_ANOMALY":21.6479,"EPHEMERIS_TYPE":0,"CLASSIFICATION_TYPE":"U","NORAD_CAT_ID":43823,"ELEMENT_SET_NO":999,"REV_AT_EPOCH":2667,"BSTAR":0,"MEAN_MOTION_DOT":-3.45e-6,"MEAN_MOTION_DDOT":0},{"OBJECT_NAME":"METEOR-M2 2","OBJECT_ID":"2019-038A","EPOCH":"2026-03-15T06:06:18.739584","MEAN_MOTION":14.24336618,"ECCENTRICITY":5.845e-5,"INCLINATION":98.9092,"RA_OF_ASC_NODE":60.1831,"ARG_OF_PERICENTER":349.3933,"MEAN_ANOMALY":10.7233,"EPHEMERIS_TYPE":0,"CLASSIFICATION_TYPE":"U","NORAD_CAT_ID":44387,"ELEMENT_SET_NO":999,"REV_AT_EPOCH":34792,"BSTAR":9.1504238e-5,"MEAN_MOTION_DOT":1.66e-6,"MEAN_MOTION_DDOT":0},{"OBJECT_NAME":"ARKTIKA-M 1","OBJECT_ID":"2021-016A","EPOCH":"2026-03-13T18:55:45.599808","MEAN_MOTION":2.00619294,"ECCENTRICITY":0.7248342,"INCLINATION":63.2042,"RA_OF_ASC_NODE":71.2738,"ARG_OF_PERICENTER":269.5023,"MEAN_ANOMALY":15.1596,"EPHEMERIS_TYPE":0,"CLASSIFICATION_TYPE":"U","NORAD_CAT_ID":47719,"ELEMENT_SET_NO":999,"REV_AT_EPOCH":3687,"BSTAR":0,"MEAN_MOTION_DOT":-1.08e-6,"MEAN_MOTION_DDOT":0},{"OBJECT_NAME":"FENGYUN 3E","OBJECT_ID":"2021-062A","EPOCH":"2026-03-15T06:27:19.794240","MEAN_MOTION":14.19895974,"ECCENTRICITY":0.00020309,"INCLINATION":98.7519,"RA_OF_ASC_NODE":78.7206,"ARG_OF_PERICENTER":32.1955,"MEAN_ANOMALY":327.9345,"EPHEMERIS_TYPE":0,"CLASSIFICATION_TYPE":"U","NORAD_CAT_ID":49008,"ELEMENT_SET_NO":999,"REV_AT_EPOCH":24325,"BSTAR":0.00022320977,"MEAN_MOTION_DOT":4.3e-6,"MEAN_MOTION_DDOT":0},{"OBJECT_NAME":"GOES 18","OBJECT_ID":"2022-021A","EPOCH":"2026-03-15T00:17:38.484672","MEAN_MOTION":1.00272979,"ECCENTRICITY":8.267e-5,"INCLINATION":0.0356,"RA_OF_ASC_NODE":39.05,"ARG_OF_PERICENTER":24.7142,"MEAN_ANOMALY":336.2554,"EPHEMERIS_TYPE":0,"CLASSIFICATION_TYPE":"U","NORAD_CAT_ID":51850,"ELEMENT_SET_NO":999,"REV_AT_EPOCH":564,"BSTAR":0,"MEAN_MOTION_DOT":9.6e-7,"MEAN_MOTION_DDOT":0},{"OBJECT_NAME":"NOAA 21 (JPSS-2)","OBJECT_ID":"2022-150A","EPOCH":"2026-03-15T05:16:40.395936","MEAN_MOTION":14.19553856,"ECCENTRICITY":0.00027632,"INCLINATION":98.7559,"RA_OF_ASC_NODE":14.4226,"ARG_OF_PERICENTER":96.8823,"MEAN_ANOMALY":263.2667,"EPHEMERIS_TYPE":0,"CLASSIFICATION_TYPE":"U","NORAD_CAT_ID":54234,"ELEMENT_SET_NO":999,"REV_AT_EPOCH":17321,"BSTAR":6.6510492e-5,"MEAN_MOTION_DOT":9.6e-7,"MEAN_MOTION_DDOT":0},{"OBJECT_NAME":"METEOSAT-12 (MTG-I1)","OBJECT_ID":"2022-170C","EPOCH":"2026-03-15T06:45:22.588416","MEAN_MOTION":1.00271392,"ECCENTRICITY":0.00017567,"INCLINATION":0.7124,"RA_OF_ASC_NODE":23.0968,"ARG_OF_PERICENTER":290.7971,"MEAN_ANOMALY":319.9822,"EPHEMERIS_TYPE":0,"CLASSIFICATION_TYPE":"U","NORAD_CAT_ID":54743,"ELEMENT_SET_NO":999,"REV_AT_EPOCH":1203,"BSTAR":0,"MEAN_MOTION_DOT":-8.0e-8,"MEAN_MOTION_DDOT":0},{"OBJECT_NAME":"TIANMU-1 03","OBJECT_ID":"2023-039A","EPOCH":"2026-03-15T06:10:43.634208","MEAN_MOTION":15.44419762,"ECCENTRICITY":0.0003978,"INCLINATION":97.5177,"RA_OF_ASC_NODE":244.7657,"ARG_OF_PERICENTER":85.8128,"MEAN_ANOMALY":274.3574,"EPHEMERIS_TYPE":0,"CLASSIFICATION_TYPE":"U","NORAD_CAT_ID":55973,"ELEMENT_SET_NO":999,"REV_AT_EPOCH":16632,"BSTAR":0.00040922517,"MEAN_MOTION_DOT":0.00018852,"MEAN_MOTION_DDOT":0},{"OBJECT_NAME":"TIANMU-1 04","OBJECT_ID":"2023-039B","EPOCH":"2026-03-15T06:42:20.878848","MEAN_MOTION":15.44838739,"ECCENTRICITY":0.00045784,"INCLINATION":97.511,"RA_OF_ASC_NODE":243.9469,"ARG_OF_PERICENTER":80.8833,"MEAN_ANOMALY":279.2933,"EPHEMERIS_TYPE":0,"CLASSIFICATION_TYPE":"U","NORAD_CAT_ID":55974,"ELEMENT_SET_NO":999,"REV_AT_EPOCH":16633,"BSTAR":0.00039929781,"MEAN_MOTION_DOT":0.00018658,"MEAN_MOTION_DDOT":0},{"OBJECT_NAME":"TIANMU-1 05","OBJECT_ID":"2023-039C","EPOCH":"2026-03-15T07:10:37.773120","MEAN_MOTION":15.44362637,"ECCENTRICITY":0.00038458,"INCLINATION":97.5158,"RA_OF_ASC_NODE":244.4579,"ARG_OF_PERICENTER":102.9536,"MEAN_ANOMALY":257.2142,"EPHEMERIS_TYPE":0,"CLASSIFICATION_TYPE":"U","NORAD_CAT_ID":55975,"ELEMENT_SET_NO":999,"REV_AT_EPOCH":16631,"BSTAR":0.00040723447,"MEAN_MOTION_DOT":0.00018723,"MEAN_MOTION_DDOT":0},{"OBJECT_NAME":"TIANMU-1 06","OBJECT_ID":"2023-039D","EPOCH":"2026-03-15T06:41:55.338144","MEAN_MOTION":15.44865979,"ECCENTRICITY":0.00041641,"INCLINATION":97.5168,"RA_OF_ASC_NODE":244.9827,"ARG_OF_PERICENTER":98.2515,"MEAN_ANOMALY":261.9206,"EPHEMERIS_TYPE":0,"CLASSIFICATION_TYPE":"U","NORAD_CAT_ID":55976,"ELEMENT_SET_NO":999,"REV_AT_EPOCH":16633,"BSTAR":0.00038681657,"MEAN_MOTION_DOT":0.00018086,"MEAN_MOTION_DDOT":0},{"OBJECT_NAME":"FENGYUN 3G","OBJECT_ID":"2023-055A","EPOCH":"2026-03-15T07:09:38.761920","MEAN_MOTION":15.52220047,"ECCENTRICITY":0.00059304,"INCLINATION":49.9925,"RA_OF_ASC_NODE":110.102,"ARG_OF_PERICENTER":318.1896,"MEAN_ANOMALY":41.8618,"EPHEMERIS_TYPE":0,"CLASSIFICATION_TYPE":"U","NORAD_CAT_ID":56232,"ELEMENT_SET_NO":999,"REV_AT_EPOCH":16541,"BSTAR":0.00050056612,"MEAN_MOTION_DOT":0.00030639,"MEAN_MOTION_DDOT":0},{"OBJECT_NAME":"METEOR-M2 3","OBJECT_ID":"2023-091A","EPOCH":"2026-03-15T07:09:14.309856","MEAN_MOTION":14.24038213,"ECCENTRICITY":0.00050971,"INCLINATION":98.6202,"RA_OF_ASC_NODE":131.1499,"ARG_OF_PERICENTER":86.5453,"MEAN_ANOMALY":273.6309,"EPHEMERIS_TYPE":0,"CLASSIFICATION_TYPE":"U","NORAD_CAT_ID":57166,"ELEMENT_SET_NO":999,"REV_AT_EPOCH":14115,"BSTAR":2.0071689e-5,"MEAN_MOTION_DOT":3.0e-8,"MEAN_MOTION_DDOT":0},{"OBJECT_NAME":"TIANMU-1 07","OBJECT_ID":"2023-101A","EPOCH":"2026-03-15T06:40:04.449792","MEAN_MOTION":15.29221152,"ECCENTRICITY":0.00049722,"INCLINATION":97.272,"RA_OF_ASC_NODE":127.1025,"ARG_OF_PERICENTER":122.6502,"MEAN_ANOMALY":237.5219,"EPHEMERIS_TYPE":0,"CLASSIFICATION_TYPE":"U","NORAD_CAT_ID":57399,"ELEMENT_SET_NO":999,"REV_AT_EPOCH":14729,"BSTAR":0.00029948812,"MEAN_MOTION_DOT":8.422e-5,"MEAN_MOTION_DDOT":0},{"OBJECT_NAME":"TIANMU-1 08","OBJECT_ID":"2023-101B","EPOCH":"2026-03-07T00:03:25.475616","MEAN_MOTION":15.29204229,"ECCENTRICITY":0.00063808,"INCLINATION":97.2717,"RA_OF_ASC_NODE":118.7901,"ARG_OF_PERICENTER":134.2174,"MEAN_ANOMALY":225.9592,"EPHEMERIS_TYPE":0,"CLASSIFICATION_TYPE":"U","NORAD_CAT_ID":57400,"ELEMENT_SET_NO":999,"REV_AT_EPOCH":14602,"BSTAR":1.4774513e-5,"MEAN_MOTION_DOT":3.46e-6,"MEAN_MOTION_DDOT":0},{"OBJECT_NAME":"TIANMU-1 09","OBJECT_ID":"2023-101C","EPOCH":"2026-03-15T07:04:37.583616","MEAN_MOTION":15.29172785,"ECCENTRICITY":0.00052388,"INCLINATION":97.2667,"RA_OF_ASC_NODE":126.3686,"ARG_OF_PERICENTER":125.4581,"MEAN_ANOMALY":234.7149,"EPHEMERIS_TYPE":0,"CLASSIFICATION_TYPE":"U","NORAD_CAT_ID":57401,"ELEMENT_SET_NO":999,"REV_AT_EPOCH":14729,"BSTAR":0.00030179754,"MEAN_MOTION_DOT":8.475e-5,"MEAN_MOTION_DDOT":0}]
